STARLINK-5366           
1 55499U 23015BC  25021.15235876  .00001885  00000+0  15463-3 0  9993
2 55499  43.0067  60.0755 0001685 280.3955  79.6697 15.02531342108345
STARLINK-5141           
1 55500U 23015BD  25020.43330566  .00001276  00000+0  10953-3 0  9991
2 55500  43.0031  64.1403 0001155 262.4817  97.5894 15.02533221108441
STARLINK-5367           
1 55501U 23015BE  25021.15457207  .00000558  00000+0  56366-4 0  9995
2 55501  43.0027  60.0815 0000912 264.9283  95.1455 15.02532204108552
STARLINK-5749           
1 55569U 23020A   25020.45388603  .00002129  00000+0  17263-3 0  9998
2 55569  43.0023  90.4162 0001046 274.7187  85.3536 15.02540762107823
STARLINK-5737           
1 55570U 23020B   25020.58906183  .00000852  00000+0  78110-4 0  9993
2 55570  43.0023  89.7108 0001112 272.3034  87.7681 15.02544797106777
STARLINK-5739           
1 55571U 23020C   25021.18181716  .00000295  00000+0  36896-4 0  9994
2 55571  43.0016  86.4190 0000718 277.0240  83.0521 15.02537554106862
STARLINK-5732           
1 55572U 23020D   25020.64554510  .00001885  00000+0  15450-3 0  9999
2 55572  43.0022  89.2745 0000758 258.5706 101.5051 15.02544702106780
STARLINK-5738           
1 55573U 23020E   25020.64666911  .00002039  00000+0  16600-3 0  9999
2 55573  43.0038  89.2837 0001171 265.3142  94.7566 15.02528794106787
STARLINK-5747           
1 55574U 23020F   25020.17133324  .00000260  00000+0  34295-4 0  9990
2 55574  43.0080  91.7361 0000722 274.4188  85.6572 15.02536410106710
STARLINK-5745           
1 55575U 23020G   25021.17405153  .00003736  00000+0  29163-3 0  9992
2 55575  43.0023  86.3576 0000960 266.1444  93.9289 15.02521519106860
STARLINK-5751           
1 55576U 23020H   25020.61610231  .00000744  00000+0  70124-4 0  9996
2 55576  43.0036  63.0659 0000907 279.6897  80.3843 15.02539379107085
STARLINK-5752           
1 55577U 23020J   25020.63889436  .00000492  00000+0  51504-4 0  9995
2 55577  43.0037  89.1569 0000998 254.3941 105.6791 15.02529564106780
STARLINK-5713           
1 55578U 23020K   25020.87483435  .00000785  00000+0  73172-4 0  9991
2 55578  43.0016  87.5155 0001205 272.9765  87.0939 15.02534419106820
STARLINK-5754           
1 55579U 23020L   25021.15074133  .00000167  00000+0  27460-4 0  9998
2 55579  42.9994  86.1841 0001247 273.5160  86.5540 15.02534952106861
STARLINK-5757           
1 55580U 23020M   25020.48093605 -.00000527  00000+0 -23952-4 0  9994
2 55580  43.0042  63.7681 0001272 261.6744  98.3955 15.02538966107069
STARLINK-5753           
1 55581U 23020N   25020.56686017  .00002219  00000+0  17930-3 0  9995
2 55581  43.0010  89.5414 0001110 272.6800  87.3915 15.02537749106770
STARLINK-5741           
1 55582U 23020P   25021.13643818  .00001429  00000+0  12337-3 0  9990
2 55582  43.0061  73.1192 0001150 269.5644  90.5066 15.01727365107019
STARLINK-5742           
1 55583U 23020Q   25020.89260449  .00000454  00000+0  48662-4 0  9996
2 55583  43.0129  87.6905 0000949 272.4413  87.6321 15.02533620106828
STARLINK-5736           
1 55584U 23020R   25020.49149749  .00002997  00000+0  23686-3 0  9994
2 55584  43.0031  89.8378 0000981 275.8450  84.2281 15.02534713106768
STARLINK-5769           
1 55585U 23020S   25021.18762414  .00000329  00000+0  39426-4 0  9999
2 55585  43.0021  73.4999 0001195 272.5372  87.5334 15.02545478107015
STARLINK-5767           
1 55586U 23020T   25021.21500132  .00001137  00000+0  99208-4 0  9993
2 55586  43.0041  85.8087 0001290 274.0012  86.0683 15.02534935106877
STARLINK-5727           
1 55587U 23020U   25020.48927820  .00000252  00000+0  33690-4 0  9999
2 55587  43.0030  89.7594 0001156 274.3724  85.6986 15.02542729106765
STARLINK-5728           
1 55588U 23020V   25020.47708716  .00000288  00000+0  36423-4 0  9996
2 55588  43.0055  89.7312 0001227 270.1764  89.8938 15.02532588106763
STARLINK-5697           
1 55589U 23020W   25020.48263397  .00000127  00000+0  24461-4 0  9990
2 55589  43.0033  89.7665 0001389 275.1560  84.9123 15.02535220106767
STARLINK-5762           
1 55590U 23020X   25020.86932384 -.00000952  00000+0 -55393-4 0  9999
2 55590  43.0114  87.5160 0002976 267.2838  92.7663 15.02497745106820
STARLINK-5760           
1 55591U 23020Y   25020.87927419  .00001187  00000+0  10291-3 0  9990
2 55591  42.9985  87.5869 0002008 285.4583  74.6037 15.02537601106826
STARLINK-5759           
1 55592U 23020Z   25020.86486773 -.00001510  00000+0 -96826-4 0  9994
2 55592  43.0011  87.4808 0000416  39.8979 320.1894 15.02516760106825
STARLINK-5703           
1 55593U 23020AA  25020.87262924 -.00000578  00000+0 -27706-4 0  9990
2 55593  43.0024  87.5385 0000448 347.5748  12.5083 15.02527117106829
STARLINK-5750           
1 55594U 23020AB  25021.19391157  .00001288  00000+0  11043-3 0  9991
2 55594  43.0029  85.6506 0001538 276.6282  83.4385 15.02538469106874
STARLINK-5740           
1 55595U 23020AC  25020.53579357 -.00000104  00000+0  73540-5 0  9998
2 55595  43.0009  89.3047 0001021 248.4993 111.5741 15.02532453106772
STARLINK-5729           
1 55596U 23020AD  25020.59338556  .00000777  00000+0  72545-4 0  9997
2 55596  43.0011  88.8867 0000834 296.8379  63.2378 15.02546452106780
STARLINK-5743           
1 55597U 23020AE  25021.18430348  .00001511  00000+0  12688-3 0  9994
2 55597  43.0046  73.4761 0001041 263.5900  96.4823 15.02537863107010
STARLINK-5756           
1 55598U 23020AF  25021.12780694 -.00004819  00000+0 -34199-3 0  9998
2 55598  43.0012  73.8761 0001710 277.2740  82.7908 15.02523040107008
STARLINK-5761           
1 55599U 23020AG  25021.19096213 -.00000322  00000+0 -87602-5 0  9997
2 55599  43.0032  73.4927 0000866 271.3593  88.7150 15.02529015107006
STARLINK-5755           
1 55600U 23020AH  25021.17875379 -.00000395  00000+0 -14154-4 0  9997
2 55600  43.0049  73.4205 0000848 266.5894  93.4851 15.02534229107011
STARLINK-5744           
1 55601U 23020AJ  25020.45710892  .00000174  00000+0  27961-4 0  9999
2 55601  43.0053  89.5818 0001292 266.6132  93.4562 15.02529322106763
STARLINK-5764           
1 55602U 23020AK  25021.18873757  .00000819  00000+0  75715-4 0  9997
2 55602  43.0030  73.4742 0000976 276.4300  83.6432 15.02534072107015
STARLINK-5735           
1 55603U 23020AL  25021.18208349 -.00000244  00000+0 -29827-5 0  9995
2 55603  43.0040  73.4469 0001335 275.7837  84.2853 15.02533582107019
STARLINK-5748           
1 55604U 23020AM  25020.48647434  .00002044  00000+0  16637-3 0  9991
2 55604  43.0032  63.8188 0001176 281.2646  78.8064 15.02533210107061
STARLINK-5725           
1 55605U 23020AN  25021.17764654  .00002109  00000+0  17113-3 0  9995
2 55605  43.0015  73.4101 0001161 290.8012  69.2706 15.02538015107012
STARLINK-5700           
1 55607U 23020AQ  25020.63916134  .00001393  00000+0  11816-3 0  9997
2 55607  43.0032  76.2504 0001286 258.2238 101.8460 15.02535837106936
STARLINK-5726           
1 55608U 23020AR  25021.16875392  .00001785  00000+0  14719-3 0  9997
2 55608  43.0046  73.3443 0001390 261.5755  98.4929 15.02542615107012
STARLINK-5719           
1 55609U 23020AS  25020.17714498  .00000647  00000+0  62974-4 0  9990
2 55609  43.0037  78.8026 0001423 264.6549  95.4131 15.02535642106868
STARLINK-5722           
1 55610U 23020AT  25021.16099160  .00000893  00000+0  81178-4 0  9994
2 55610  43.0010  73.2828 0001159 253.2339 106.8376 15.02534534107012
STARLINK-5730           
1 55611U 23020AU  25020.62697256 -.00000764  00000+0 -41510-4 0  9990
2 55611  43.0035  76.1595 0001093 245.0005 115.0724 15.02523713106935
STARLINK-5734           
1 55612U 23020AV  25021.15767398 -.00002316  00000+0 -15647-3 0  9991
2 55612  43.0035  73.2614 0001478 275.5132  84.5541 15.02520098107012
STARLINK-5715           
1 55613U 23020AW  25020.63361520  .00001673  00000+0  13894-3 0  9996
2 55613  43.0029  76.2107 0001189 260.2131  99.8578 15.02524832106934
STARLINK-5714           
1 55614U 23020AX  25020.56405964  .00000690  00000+0  66184-4 0  9999
2 55614  43.0044  63.5051 0001261 269.2209  90.8489 15.02528586107073
STARLINK-5712           
1 55615U 23020AY  25020.62251015  .00001154  00000+0  10048-3 0  9996
2 55615  43.0041  76.1262 0001310 261.7590  98.3104 15.02535714106932
STARLINK-5710           
1 55616U 23020AZ  25021.14545041  .00000723  00000+0  68595-4 0  9992
2 55616  43.0012  73.1708 0000346 291.7982  68.2824 15.02540513107017
STARLINK-5721           
1 55617U 23020BA  25021.15100044  .00000549  00000+0  55689-4 0  9990
2 55617  42.9987  73.2069 0001010 187.3301 172.7527 15.02532979107010
STARLINK-5717           
1 55618U 23020BB  25020.61252396  .00002437  00000+0  19546-3 0  9998
2 55618  43.0048  76.0513 0001094 270.7718  89.2999 15.02533142106935
STARLINK-5720           
1 55619U 23020BC  25021.20749078  .00001224  00000+0  10570-3 0  9994
2 55619  43.0045  72.7771 0000980 277.9540  82.1191 15.02535134107027
STARLINK-5718           
1 55620U 23020BD  25020.20699504  .00003874  00000+0  30176-3 0  9990
2 55620  43.0032  78.1661 0001121 265.0385  95.0329 15.02525308106876
STARLINK-5709           
1 55621U 23020BE  25020.61696497 -.00000382  00000+0 -13202-4 0  9999
2 55621  43.0039  76.0848 0001305 256.5454 103.5243 15.02530668106936
STARLINK-5702           
1 55622U 23020BF  25021.13546837  .00000567  00000+0  57030-4 0  9990
2 55622  43.0055  73.0976 0001188 269.9926  90.0780 15.02532875107013
STARLINK-5698           
1 55623U 23020BG  25020.86510718  .00002120  00000+0  17190-3 0  9998
2 55623  43.0047  74.5070 0001148 262.3059  97.7653 15.02543007106972
STARLINK-5484           
1 55628U 23021A   25020.82962757 -.00002256  00000+0 -18137-3 0  9998
2 55628  70.0005 165.5076 0003017 271.6629  88.4184 14.98329576106457
STARLINK-5497           
1 55629U 23021B   25020.83379408  .00001214  00000+0  10947-3 0  9997
2 55629  70.0005 165.5232 0003209 271.3535  88.7256 14.98337842106456
